[{"OBJECT_NAME":"GLOBALSTAR M090","OBJECT_ID":"2011-080E","EPOCH":"2026-03-09T18:02:24.533376","MEAN_MOTION":12.62271909,"ECCENTRICITY":9.451e-5,"INCLINATION":52.011,"RA_OF_ASC_NODE":271.101,"ARG_OF_PERICENTER":93.3649,"MEAN_ANOMALY":347.2221,"EPHEMERIS_TYPE":0,"CLASSIFICATION_TYPE":"U","NORAD_CAT_ID":38044,"ELEMENT_SET_NO":999,"REV_AT_EPOCH":65715,"BSTAR":0.00010518372,"MEAN_MOTION_DOT":-8.5e-7,"MEAN_MOTION_DDOT":0},{"OBJECT_NAME":"SL-14 R\/B","OBJECT_ID":"1994-011G","EPOCH":"2026-03-09T15:10:47.028000","MEAN_MOTION":12.55222346,"ECCENTRICITY":0.004059,"INCLINATION":82.5765,"RA_OF_ASC_NODE":125.6094,"ARG_OF_PERICENTER":337.8808,"MEAN_ANOMALY":141.3807,"EPHEMERIS_TYPE":0,"CLASSIFICATION_TYPE":"U","NORAD_CAT_ID":23005,"ELEMENT_SET_NO":999,"REV_AT_EPOCH":46926,"BSTAR":3.082e-5,"MEAN_MOTION_DOT":1.5e-7,"MEAN_MOTION_DDOT":0}]
